IRIDIUM 166             
1 43570U 18061B   24037.58405642 -.00000050  00000+0 -24918-4 0  9999
2 43570  86.3924  56.8094 0001781  96.8366 263.3032 14.34214754289902
IRIDIUM 158             
1 43571U 18061C   24037.55234214  .00000211  00000+0  68430-4 0  9996
2 43571  86.3927  56.8319 0002224  97.8834 262.2614 14.34217620289864
IRIDIUM 165             
1 43572U 18061D   24037.57771236  .00000079  00000+0  21250-4 0  9990
2 43572  86.3929  56.8512 0002206  99.3124 260.8321 14.34217145289895
IRIDIUM 155             
1 43573U 18061E   24037.53965606  .00000083  00000+0  22559-4 0  9991
2 43573  86.3924  56.7786 0001996  87.3916 272.7508 14.34216891289856
IRIDIUM 154             
1 43574U 18061F   24037.59039897 -.00000126  00000+0 -52155-4 0  9997
2 43574  86.3925  56.8492 0002355  90.1084 270.0382 14.34216470289912
IRIDIUM 163             
1 43575U 18061G   24037.57137481  .00000035  00000+0  53848-5 0  9992
2 43575  86.3924  56.7989 0002174  88.8647 271.2798 14.34215528289883
IRIDIUM 156             
1 43576U 18061H   24037.47621291  .00000254  00000+0  83710-4 0  9992
2 43576  86.3927  56.8450 0002077  97.2306 262.9126 14.34222547289868
IRIDIUM 164             
1 43577U 18061J   24037.59673850  .00000167  00000+0  52412-4 0  9992
2 43577  86.3926  56.8215 0002296  96.7690 263.3767 14.34217462289923
